{"fetched_at":"2026-07-22T07:09:23.749Z","source":"https://celestrak.org/NORAD/elements/gp.php?GROUP=planet&FORMAT=JSON","constellation":"superdove","records":[{"OBJECT_NAME":"FLOCK 4H-16","OBJECT_ID":"2025-276BF","EPOCH":"2026-07-21T10:56:02.004864","CLASSIFICATION_TYPE":"U","MEAN_MOTION":15.20198933,"ECCENTRICITY":0.00032176,"INCLINATION":97.4219,"RA_OF_ASC_NODE":275.4946,"ARG_OF_PERICENTER":224.3766,"MEAN_ANOMALY":135.7212,"EPHEMERIS_TYPE":0,"NORAD_CAT_ID":66719,"ELEMENT_SET_NO":999,"REV_AT_EPOCH":3562,"BSTAR":0.00023250776,"MEAN_MOTION_DOT":0.00004969,"MEAN_MOTION_DDOT":0},{"OBJECT_NAME":"FLOCK 4H-18","OBJECT_ID":"2025-276BH","EPOCH":"2026-07-21T11:05:15.405504","CLASSIFICATION_TYPE":"U","MEAN_MOTION":15.20142611,"ECCENTRICITY":0.00023073,"INCLINATION":97.4161,"RA_OF_ASC_NODE":275.3092,"ARG_OF_PERICENTER":253.8414,"MEAN_ANOMALY":106.2567,"EPHEMERIS_TYPE":0,"NORAD_CAT_ID":66721,"ELEMENT_SET_NO":999,"REV_AT_EPOCH":3562,"BSTAR":0.00024750689,"MEAN_MOTION_DOT":0.00005285,"MEAN_MOTION_DDOT":0},{"OBJECT_NAME":"FLOCK 4H-19","OBJECT_ID":"2025-276BJ","EPOCH":"2026-07-21T12:31:52.566816","CLASSIFICATION_TYPE":"U","MEAN_MOTION":15.21328956,"ECCENTRICITY":0.00028206,"INCLINATION":97.4161,"RA_OF_ASC_NODE":275.8422,"ARG_OF_PERICENTER":137.802,"MEAN_ANOMALY":222.3433,"EPHEMERIS_TYPE":0,"NORAD_CAT_ID":66722,"ELEMENT_SET_NO":999,"REV_AT_EPOCH":3495,"BSTAR":0.00021476589,"MEAN_MOTION_DOT":0.00004739,"MEAN_MOTION_DDOT":0},{"OBJECT_NAME":"FLOCK 4H-20","OBJECT_ID":"2025-276BK","EPOCH":"2026-07-21T12:33:59.078016","CLASSIFICATION_TYPE":"U","MEAN_MOTION":15.21496736,"ECCENTRICITY":0.00034484,"INCLINATION":97.4199,"RA_OF_ASC_NODE":275.9544,"ARG_OF_PERICENTER":154.1603,"MEAN_ANOMALY":205.9806,"EPHEMERIS_TYPE":0,"NORAD_CAT_ID":66723,"ELEMENT_SET_NO":999,"REV_AT_EPOCH":3491,"BSTAR":0.00025929245,"MEAN_MOTION_DOT":0.00005766,"MEAN_MOTION_DDOT":0},{"OBJECT_NAME":"FLOCK 4H-21","OBJECT_ID":"2025-276BL","EPOCH":"2026-07-21T03:53:14.856000","CLASSIFICATION_TYPE":"U","MEAN_MOTION":15.21074092,"ECCENTRICITY":0.00032572,"INCLINATION":97.4162,"RA_OF_ASC_NODE":275.4152,"ARG_OF_PERICENTER":154.0737,"MEAN_ANOMALY":206.0663,"EPHEMERIS_TYPE":0,"NORAD_CAT_ID":66724,"ELEMENT_SET_NO":999,"REV_AT_EPOCH":3485,"BSTAR":0.00022506455,"MEAN_MOTION_DOT":0.00004933,"MEAN_MOTION_DDOT":0},{"OBJECT_NAME":"FLOCK 4H-22","OBJECT_ID":"2025-276BM","EPOCH":"2026-07-21T11:19:18.171840","CLASSIFICATION_TYPE":"U","MEAN_MOTION":15.20576147,"ECCENTRICITY":0.00011575,"INCLINATION":97.4154,"RA_OF_ASC_NODE":275.4256,"ARG_OF_PERICENTER":240.6275,"MEAN_ANOMALY":119.4845,"EPHEMERIS_TYPE":0,"NORAD_CAT_ID":66725,"ELEMENT_SET_NO":999,"REV_AT_EPOCH":3563,"BSTAR":0.00026382173,"MEAN_MOTION_DOT":0.0000571,"MEAN_MOTION_DDOT":0},{"OBJECT_NAME":"FLOCK 4H-23","OBJECT_ID":"2025-276BN","EPOCH":"2026-07-21T11:04:25.978656","CLASSIFICATION_TYPE":"U","MEAN_MOTION":15.20120301,"ECCENTRICITY":0.00035097,"INCLINATION":97.4224,"RA_OF_ASC_NODE":275.5014,"ARG_OF_PERICENTER":214.7989,"MEAN_ANOMALY":145.3017,"EPHEMERIS_TYPE":0,"NORAD_CAT_ID":66726,"ELEMENT_SET_NO":999,"REV_AT_EPOCH":3562,"BSTAR":0.00024369189,"MEAN_MOTION_DOT":0.000052,"MEAN_MOTION_DDOT":0},{"OBJECT_NAME":"FLOCK 4H-24","OBJECT_ID":"2025-276BP","EPOCH":"2026-07-21T10:41:52.332576","CLASSIFICATION_TYPE":"U","MEAN_MOTION":15.20230349,"ECCENTRICITY":0.00027104,"INCLINATION":97.4218,"RA_OF_ASC_NODE":275.5156,"ARG_OF_PERICENTER":233.0372,"MEAN_ANOMALY":127.0616,"EPHEMERIS_TYPE":0,"NORAD_CAT_ID":66727,"ELEMENT_SET_NO":999,"REV_AT_EPOCH":3562,"BSTAR":0.00023965521,"MEAN_MOTION_DOT":0.00005129,"MEAN_MOTION_DDOT":0},{"OBJECT_NAME":"FLOCK 4H-25","OBJECT_ID":"2025-276BQ","EPOCH":"2026-07-21T04:20:19.079232","CLASSIFICATION_TYPE":"U","MEAN_MOTION":15.20991943,"ECCENTRICITY":0.00021054,"INCLINATION":97.4176,"RA_OF_ASC_NODE":275.4255,"ARG_OF_PERICENTER":122.0913,"MEAN_ANOMALY":238.0527,"EPHEMERIS_TYPE":0,"NORAD_CAT_ID":66728,"ELEMENT_SET_NO":999,"REV_AT_EPOCH":3488,"BSTAR":0.00020577344,"MEAN_MOTION_DOT":0.00004493,"MEAN_MOTION_DDOT":0},{"OBJECT_NAME":"FLOCK 4H-26","OBJECT_ID":"2025-276BR","EPOCH":"2026-07-21T11:31:39.513216","CLASSIFICATION_TYPE":"U","MEAN_MOTION":15.19953555,"ECCENTRICITY":0.00035804,"INCLINATION":97.4173,"RA_OF_ASC_NODE":275.3251,"ARG_OF_PERICENTER":234.3282,"MEAN_ANOMALY":125.762,"EPHEMERIS_TYPE":0,"NORAD_CAT_ID":66729,"ELEMENT_SET_NO":999,"REV_AT_EPOCH":3562,"BSTAR":0.00027664881,"MEAN_MOTION_DOT":0.00005884,"MEAN_MOTION_DDOT":0},{"OBJECT_NAME":"FLOCK 4H-27","OBJECT_ID":"2025-276BS","EPOCH":"2026-07-21T03:30:39.673728","CLASSIFICATION_TYPE":"U","MEAN_MOTION":15.20814663,"ECCENTRICITY":0.00018252,"INCLINATION":97.4152,"RA_OF_ASC_NODE":275.2412,"ARG_OF_PERICENTER":125.2301,"MEAN_ANOMALY":234.9106,"EPHEMERIS_TYPE":0,"NORAD_CAT_ID":66730,"ELEMENT_SET_NO":999,"REV_AT_EPOCH":3559,"BSTAR":0.00022993261,"MEAN_MOTION_DOT":0.00005003,"MEAN_MOTION_DDOT":0},{"OBJECT_NAME":"FLOCK 4H-29","OBJECT_ID":"2025-276BU","EPOCH":"2026-07-21T11:01:20.716320","CLASSIFICATION_TYPE":"U","MEAN_MOTION":15.20094184,"ECCENTRICITY":0.00018579,"INCLINATION":97.4153,"RA_OF_ASC_NODE":275.2863,"ARG_OF_PERICENTER":242.7236,"MEAN_ANOMALY":117.381,"EPHEMERIS_TYPE":0,"NORAD_CAT_ID":66732,"ELEMENT_SET_NO":999,"REV_AT_EPOCH":3562,"BSTAR":0.00025777497,"MEAN_MOTION_DOT":0.000055,"MEAN_MOTION_DDOT":0},{"OBJECT_NAME":"FLOCK 4H-30","OBJECT_ID":"2025-276BV","EPOCH":"2026-07-21T10:48:57.147552","CLASSIFICATION_TYPE":"U","MEAN_MOTION":15.20218505,"ECCENTRICITY":0.00029911,"INCLINATION":97.4214,"RA_OF_ASC_NODE":275.4915,"ARG_OF_PERICENTER":232.1774,"MEAN_ANOMALY":127.9191,"EPHEMERIS_TYPE":0,"NORAD_CAT_ID":66733,"ELEMENT_SET_NO":999,"REV_AT_EPOCH":3562,"BSTAR":0.00025243852,"MEAN_MOTION_DOT":0.00005404,"MEAN_MOTION_DDOT":0},{"OBJECT_NAME":"FLOCK 4H-31","OBJECT_ID":"2025-276BW","EPOCH":"2026-07-21T05:01:18.594336","CLASSIFICATION_TYPE":"U","MEAN_MOTION":15.19986233,"ECCENTRICITY":0.0002299,"INCLINATION":97.4151,"RA_OF_ASC_NODE":275.0067,"ARG_OF_PERICENTER":241.6798,"MEAN_ANOMALY":118.4205,"EPHEMERIS_TYPE":0,"NORAD_CAT_ID":66734,"ELEMENT_SET_NO":999,"REV_AT_EPOCH":3558,"BSTAR":0.00023784898,"MEAN_MOTION_DOT":0.00005053,"MEAN_MOTION_DDOT":0},{"OBJECT_NAME":"FLOCK 4H-32","OBJECT_ID":"2025-276BX","EPOCH":"2026-07-21T04:43:12.821952","CLASSIFICATION_TYPE":"U","MEAN_MOTION":15.2010582,"ECCENTRICITY":0.00033781,"INCLINATION":97.4208,"RA_OF_ASC_NODE":275.1962,"ARG_OF_PERICENTER":232.0319,"MEAN_ANOMALY":128.0612,"EPHEMERIS_TYPE":0,"NORAD_CAT_ID":66735,"ELEMENT_SET_NO":999,"REV_AT_EPOCH":3558,"BSTAR":0.0002161172,"MEAN_MOTION_DOT":0.00004601,"MEAN_MOTION_DDOT":0},{"OBJECT_NAME":"FLOCK 4H-33","OBJECT_ID":"2025-276BY","EPOCH":"2026-07-21T11:30:11.420640","CLASSIFICATION_TYPE":"U","MEAN_MOTION":15.21237742,"ECCENTRICITY":0.00032301,"INCLINATION":97.4205,"RA_OF_ASC_NODE":275.8776,"ARG_OF_PERICENTER":147.6801,"MEAN_ANOMALY":212.4633,"EPHEMERIS_TYPE":0,"NORAD_CAT_ID":66736,"ELEMENT_SET_NO":999,"REV_AT_EPOCH":3565,"BSTAR":0.00025592725,"MEAN_MOTION_DOT":0.00005646,"MEAN_MOTION_DDOT":0}]}
