{"epoch":1784710044,"count":18256,"objects":[{"id":"66719","name":"FLOCK 4H 16","type":"PAYLOAD","l1":"1 66719U 25276BF  26202.45557876  .00004969  00000-0  23251-3 0  9994","l2":"2 66719  97.4219 275.4946 0003218 224.3766 135.7212 15.20198933 35622"},{"id":"66721","name":"FLOCK 4H 18","type":"PAYLOAD","l1":"1 66721U 25276BH  26202.46198386  .00005285  00000-0  24751-3 0  9993","l2":"2 66721  97.4161 275.3092 0002307 253.8414 106.2567 15.20142611 35625"},{"id":"66722","name":"FLOCK 4H 19","type":"PAYLOAD","l1":"1 66722U 25276BJ  26202.52213619  .00004739  00000-0  21477-3 0  9993","l2":"2 66722  97.4161 275.8422 0002821 137.8020 222.3433 15.21328956 34959"},{"id":"66723","name":"FLOCK 4H 20","type":"PAYLOAD","l1":"1 66723U 25276BK  26202.52360044  .00005766  00000-0  25929-3 0  9996","l2":"2 66723  97.4199 275.9544 0003448 154.1603 205.9806 15.21496736 34911"},{"id":"66724","name":"FLOCK 4H 21","type":"PAYLOAD","l1":"1 66724U 25276BL  26202.16197750  .00004933  00000-0  22506-3 0  9992","l2":"2 66724  97.4162 275.4152 0003257 154.0737 206.0663 15.21074092 34850"},{"id":"66725","name":"FLOCK 4H 22","type":"PAYLOAD","l1":"1 66725U 25276BM  26202.47173810  .00005710  00000-0  26382-3 0  9998","l2":"2 66725  97.4154 275.4256 0001158 240.6275 119.4845 15.20576147 35637"},{"id":"66726","name":"FLOCK 4H 23","type":"PAYLOAD","l1":"1 66726U 25276BN  26202.46141179  .00005200  00000-0  24369-3 0  9998","l2":"2 66726  97.4224 275.5014 0003510 214.7989 145.3017 15.20120301 35622"},{"id":"66727","name":"FLOCK 4H 24","type":"PAYLOAD","l1":"1 66727U 25276BP  26202.44574459  .00005129  00000-0  23966-3 0  9990","l2":"2 66727  97.4218 275.5156 0002710 233.0372 127.0616 15.20230349 35620"},{"id":"66728","name":"FLOCK 4H 25","type":"PAYLOAD","l1":"1 66728U 25276BQ  26202.18077638  .00004493  00000-0  20577-3 0  9997","l2":"2 66728  97.4176 275.4255 0002105 122.0913 238.0527 15.20991943 34884"},{"id":"66729","name":"FLOCK 4H 26","type":"PAYLOAD","l1":"1 66729U 25276BR  26202.48031844  .00005884  00000-0  27665-3 0  9990","l2":"2 66729  97.4173 275.3251 0003580 234.3282 125.7620 15.19953555 35625"},{"id":"66730","name":"FLOCK 4H 27","type":"PAYLOAD","l1":"1 66730U 25276BS  26202.14629252  .00005003  00000-0  22993-3 0  9993","l2":"2 66730  97.4152 275.2412 0001825 125.2301 234.9106 15.20814663 35598"},{"id":"66732","name":"FLOCK 4H 29","type":"PAYLOAD","l1":"1 66732U 25276BU  26202.45926755  .00005500  00000-0  25777-3 0  9992","l2":"2 66732  97.4153 275.2863 0001858 242.7236 117.3810 15.20094184 35627"},{"id":"66733","name":"FLOCK 4H 30","type":"PAYLOAD","l1":"1 66733U 25276BV  26202.45066143  .00005404  00000-0  25244-3 0  9991","l2":"2 66733  97.4214 275.4915 0002991 232.1774 127.9191 15.20218505 35629"},{"id":"66734","name":"FLOCK 4H 31","type":"PAYLOAD","l1":"1 66734U 25276BW  26202.20924299  .00005053  00000-0  23785-3 0  9998","l2":"2 66734  97.4151 275.0067 0002299 241.6798 118.4205 15.19986233 35580"},{"id":"66735","name":"FLOCK 4H 32","type":"PAYLOAD","l1":"1 66735U 25276BX  26202.19667618  .00004601  00000-0  21612-3 0  9991","l2":"2 66735  97.4208 275.1962 0003378 232.0319 128.0612 15.20105820 35587"},{"id":"66736","name":"FLOCK 4H 33","type":"PAYLOAD","l1":"1 66736U 25276BY  26202.47929885  .00005646  00000-0  25593-3 0  9992","l2":"2 66736  97.4205 275.8776 0003230 147.6801 212.4633 15.21237742 35658"}]}